SKYKRAFT-1A             
1 55054U 23001AX  26068.71064616  .00008177  00000+0  30069-3 0  9991
2 55054  97.3349 127.6290 0011277 121.5092 238.7251 15.28083228176529
STARLINK-31021          
1 58518U 23191L   26068.44888954  .00000649  00000+0  33885-4 0  9994
2 58518  43.0000 104.8427 0001407 267.8000  92.2690 15.26741054125435
